ORBCOMM FM24            
1 25478U 98053D   25212.00124062  .00001014  00000+0  37735-3 0  9991
2 25478  45.0087  61.3421 0002781  83.6522 276.4643 14.38181605403751
ORBCOMM FM25            
1 25479U 98053E   25212.59863344  .00001084  00000+0  40055-3 0  9995
2 25479  45.0077  56.7856 0005022 103.1364 257.0045 14.38154546404132
ORBCOMM FM26            
1 25480U 98053F   25212.56982586  .00000791  00000+0  31073-3 0  9998
2 25480  45.0075  53.7012 0006644 121.4650 238.6848 14.37201077404031
ORBCOMM FM27            
1 25481U 98053G   25212.58538081  .00001054  00000+0  39041-3 0  9994
2 25481  45.0060  57.0353 0001318  90.3456 269.7543 14.38185219404062
ORBCOMM FM28            
1 25482U 98053H   25212.54786918  .00000995  00000+0  36991-3 0  9999
2 25482  45.0071 354.6511 0005703 166.3149 193.7855 14.38364492404741
ORBCOMM FM30            
1 25980U 99065A   25212.34619247  .00000514  00000+0  21769-3 0  9998
2 25980  45.0301 240.6862 0008570 240.1709 119.8287 14.37364838340808
ORBCOMM FM31            
1 25981U 99065B   25212.46036968  .00000539  00000+0  22617-3 0  9995
2 25981  45.0212 233.6238 0006297 262.1779  97.8354 14.37301979340373
ORBCOMM FM32            
1 25982U 99065C   25212.46675750  .00000639  00000+0  26438-3 0  9990
2 25982  45.0145 250.4707 0008621 254.2103 105.7794 14.36349186340966
